[{"OBJECT_NAME":"ONEWEB-0640","OBJECT_ID":"2023-029J","EPOCH":"2026-01-03T07:16:28.671168","MEAN_MOTION":13.14501456,"ECCENTRICITY":0.0002358,"INCLINATION":87.9002,"RA_OF_ASC_NODE":322.6089,"ARG_OF_PERICENTER":67.2039,"MEAN_ANOMALY":292.9339,"EPHEMERIS_TYPE":0,"CLASSIFICATION_TYPE":"U","NORAD_CAT_ID":55804,"ELEMENT_SET_NO":999,"REV_AT_EPOCH":13775,"BSTAR":-0.00057623033,"MEAN_MOTION_DOT":-2.01e-6,"MEAN_MOTION_DDOT":0},{"OBJECT_NAME":"ONEWEB-0641","OBJECT_ID":"2023-029K","EPOCH":"2026-01-02T21:33:24.255360","MEAN_MOTION":13.19726271,"ECCENTRICITY":0.0001615,"INCLINATION":87.9218,"RA_OF_ASC_NODE":337.8508,"ARG_OF_PERICENTER":76.9281,"MEAN_ANOMALY":283.2031,"EPHEMERIS_TYPE":0,"CLASSIFICATION_TYPE":"U","NORAD_CAT_ID":55805,"ELEMENT_SET_NO":999,"REV_AT_EPOCH":13711,"BSTAR":-6.8991e-6,"MEAN_MOTION_DOT":1.0e-7,"MEAN_MOTION_DDOT":0},{"OBJECT_NAME":"ONEWEB-0642","OBJECT_ID":"2023-029L","EPOCH":"2026-01-02T23:15:45.538848","MEAN_MOTION":13.19725627,"ECCENTRICITY":0.0001293,"INCLINATION":87.9203,"RA_OF_ASC_NODE":337.8573,"ARG_OF_PERICENTER":53.1933,"MEAN_ANOMALY":306.9319,"EPHEMERIS_TYPE":0,"CLASSIFICATION_TYPE":"U","NORAD_CAT_ID":55806,"ELEMENT_SET_NO":999,"REV_AT_EPOCH":13711,"BSTAR":-4.2288e-5,"MEAN_MOTION_DOT":-4.0e-8,"MEAN_MOTION_DDOT":0},{"OBJECT_NAME":"ONEWEB-0643","OBJECT_ID":"2023-029M","EPOCH":"2026-01-03T06:33:05.232672","MEAN_MOTION":13.1450211,"ECCENTRICITY":0.00011637,"INCLINATION":87.9007,"RA_OF_ASC_NODE":322.601,"ARG_OF_PERICENTER":60.4581,"MEAN_ANOMALY":299.6665,"EPHEMERIS_TYPE":0,"CLASSIFICATION_TYPE":"U","NORAD_CAT_ID":55807,"ELEMENT_SET_NO":999,"REV_AT_EPOCH":13772,"BSTAR":3.6925826e-5,"MEAN_MOTION_DOT":2.6e-7,"MEAN_MOTION_DDOT":0},{"OBJECT_NAME":"ONEWEB-0644","OBJECT_ID":"2023-029N","EPOCH":"2026-01-02T21:19:44.144832","MEAN_MOTION":13.19724902,"ECCENTRICITY":0.000148,"INCLINATION":87.9206,"RA_OF_ASC_NODE":337.8827,"ARG_OF_PERICENTER":71.7727,"MEAN_ANOMALY":288.3566,"EPHEMERIS_TYPE":0,"CLASSIFICATION_TYPE":"U","NORAD_CAT_ID":55808,"ELEMENT_SET_NO":999,"REV_AT_EPOCH":13710,"BSTAR":-0.00072605,"MEAN_MOTION_DOT":-2.78e-6,"MEAN_MOTION_DDOT":0},{"OBJECT_NAME":"ONEWEB-0645","OBJECT_ID":"2023-029P","EPOCH":"2026-01-03T06:57:30.053088","MEAN_MOTION":13.19724807,"ECCENTRICITY":0.00018165,"INCLINATION":87.9204,"RA_OF_ASC_NODE":337.7955,"ARG_OF_PERICENTER":66.0014,"MEAN_ANOMALY":294.1308,"EPHEMERIS_TYPE":0,"CLASSIFICATION_TYPE":"U","NORAD_CAT_ID":55809,"ELEMENT_SET_NO":999,"REV_AT_EPOCH":13715,"BSTAR":-0.00011302297,"MEAN_MOTION_DOT":-3.2e-7,"MEAN_MOTION_DDOT":0},{"OBJECT_NAME":"ONEWEB-0646","OBJECT_ID":"2023-029Q","EPOCH":"2026-01-03T07:22:31.158912","MEAN_MOTION":13.19726139,"ECCENTRICITY":0.00015246,"INCLINATION":87.9212,"RA_OF_ASC_NODE":337.7862,"ARG_OF_PERICENTER":74.4298,"MEAN_ANOMALY":285.7003,"EPHEMERIS_TYPE":0,"CLASSIFICATION_TYPE":"U","NORAD_CAT_ID":55810,"ELEMENT_SET_NO":999,"REV_AT_EPOCH":13714,"BSTAR":3.8042835e-5,"MEAN_MOTION_DOT":2.8e-7,"MEAN_MOTION_DDOT":0},{"OBJECT_NAME":"ONEWEB-0648","OBJECT_ID":"2023-029R","EPOCH":"2026-01-03T05:47:25.410912","MEAN_MOTION":13.14502676,"ECCENTRICITY":0.00018725,"INCLINATION":87.9011,"RA_OF_ASC_NODE":322.5694,"ARG_OF_PERICENTER":47.7341,"MEAN_ANOMALY":312.3947,"EPHEMERIS_TYPE":0,"CLASSIFICATION_TYPE":"U","NORAD_CAT_ID":55811,"ELEMENT_SET_NO":999,"REV_AT_EPOCH":13772,"BSTAR":0.000327747,"MEAN_MOTION_DOT":1.34e-6,"MEAN_MOTION_DDOT":0},{"OBJECT_NAME":"ONEWEB-0649","OBJECT_ID":"2023-029S","EPOCH":"2026-01-02T22:53:00.799872","MEAN_MOTION":13.19726183,"ECCENTRICITY":0.0001667,"INCLINATION":87.9216,"RA_OF_ASC_NODE":337.8532,"ARG_OF_PERICENTER":71.306,"MEAN_ANOMALY":288.8253,"EPHEMERIS_TYPE":0,"CLASSIFICATION_TYPE":"U","NORAD_CAT_ID":55812,"ELEMENT_SET_NO":999,"REV_AT_EPOCH":13713,"BSTAR":2.8577e-5,"MEAN_MOTION_DOT":2.4e-7,"MEAN_MOTION_DDOT":0},{"OBJECT_NAME":"ONEWEB-0650","OBJECT_ID":"2023-029T","EPOCH":"2026-01-02T22:46:12.262656","MEAN_MOTION":13.19725406,"ECCENTRICITY":0.0001485,"INCLINATION":87.9209,"RA_OF_ASC_NODE":337.8593,"ARG_OF_PERICENTER":67.4796,"MEAN_ANOMALY":292.6493,"EPHEMERIS_TYPE":0,"CLASSIFICATION_TYPE":"U","NORAD_CAT_ID":55813,"ELEMENT_SET_NO":999,"REV_AT_EPOCH":13710,"BSTAR":0.00020284,"MEAN_MOTION_DOT":9.4e-7,"MEAN_MOTION_DDOT":0},{"OBJECT_NAME":"ONEWEB-0652","OBJECT_ID":"2023-029U","EPOCH":"2026-01-03T07:09:37.580832","MEAN_MOTION":13.14502392,"ECCENTRICITY":0.0001793,"INCLINATION":87.9003,"RA_OF_ASC_NODE":322.5779,"ARG_OF_PERICENTER":84.9122,"MEAN_ANOMALY":275.2212,"EPHEMERIS_TYPE":0,"CLASSIFICATION_TYPE":"U","NORAD_CAT_ID":55814,"ELEMENT_SET_NO":999,"REV_AT_EPOCH":13770,"BSTAR":-0.00033064856,"MEAN_MOTION_DOT":-1.1e-6,"MEAN_MOTION_DDOT":0},{"OBJECT_NAME":"ONEWEB-0653","OBJECT_ID":"2023-029V","EPOCH":"2026-01-03T06:46:47.481600","MEAN_MOTION":13.1450205,"ECCENTRICITY":0.00019093,"INCLINATION":87.9007,"RA_OF_ASC_NODE":322.5699,"ARG_OF_PERICENTER":80.4214,"MEAN_ANOMALY":279.7131,"EPHEMERIS_TYPE":0,"CLASSIFICATION_TYPE":"U","NORAD_CAT_ID":55815,"ELEMENT_SET_NO":999,"REV_AT_EPOCH":13773,"BSTAR":-0.00029515176,"MEAN_MOTION_DOT":-9.7e-7,"MEAN_MOTION_DDOT":0},{"OBJECT_NAME":"ONEWEB-0654","OBJECT_ID":"2023-029W","EPOCH":"2026-01-03T06:39:56.494944","MEAN_MOTION":13.14501494,"ECCENTRICITY":0.00019594,"INCLINATION":87.901,"RA_OF_ASC_NODE":322.5706,"ARG_OF_PERICENTER":88.6806,"MEAN_ANOMALY":271.4548,"EPHEMERIS_TYPE":0,"CLASSIFICATION_TYPE":"U","NORAD_CAT_ID":55816,"ELEMENT_SET_NO":999,"REV_AT_EPOCH":13775,"BSTAR":-0.00024471835,"MEAN_MOTION_DOT":-7.8e-7,"MEAN_MOTION_DDOT":0},{"OBJECT_NAME":"ONEWEB-0656","OBJECT_ID":"2023-029X","EPOCH":"2026-01-03T06:45:26.809056","MEAN_MOTION":13.20771621,"ECCENTRICITY":0.00019694,"INCLINATION":87.9226,"RA_OF_ASC_NODE":307.3199,"ARG_OF_PERICENTER":88.5403,"MEAN_ANOMALY":271.5956,"EPHEMERIS_TYPE":0,"CLASSIFICATION_TYPE":"U","NORAD_CAT_ID":55817,"ELEMENT_SET_NO":999,"REV_AT_EPOCH":13938,"BSTAR":-0.00026429117,"MEAN_MOTION_DOT":-9.4e-7,"MEAN_MOTION_DDOT":0},{"OBJECT_NAME":"ONEWEB-0657","OBJECT_ID":"2023-029Y","EPOCH":"2026-01-02T22:39:21.154176","MEAN_MOTION":13.19724125,"ECCENTRICITY":0.0001528,"INCLINATION":87.9205,"RA_OF_ASC_NODE":337.8612,"ARG_OF_PERICENTER":108.8316,"MEAN_ANOMALY":251.2983,"EPHEMERIS_TYPE":0,"CLASSIFICATION_TYPE":"U","NORAD_CAT_ID":55818,"ELEMENT_SET_NO":999,"REV_AT_EPOCH":13711,"BSTAR":0.00029058,"MEAN_MOTION_DOT":1.29e-6,"MEAN_MOTION_DDOT":0},{"OBJECT_NAME":"ONEWEB-0658","OBJECT_ID":"2023-029Z","EPOCH":"2026-01-02T22:32:32.133984","MEAN_MOTION":13.19726026,"ECCENTRICITY":0.0001422,"INCLINATION":87.9222,"RA_OF_ASC_NODE":337.8193,"ARG_OF_PERICENTER":71.5232,"MEAN_ANOMALY":288.6055,"EPHEMERIS_TYPE":0,"CLASSIFICATION_TYPE":"U","NORAD_CAT_ID":55819,"ELEMENT_SET_NO":999,"REV_AT_EPOCH":13712,"BSTAR":-0.00019339,"MEAN_MOTION_DOT":-6.4e-7,"MEAN_MOTION_DDOT":0},{"OBJECT_NAME":"ONEWEB-0660","OBJECT_ID":"2023-029AA","EPOCH":"2026-01-03T06:07:58.375200","MEAN_MOTION":13.14501633,"ECCENTRICITY":0.00018362,"INCLINATION":87.9013,"RA_OF_ASC_NODE":322.5562,"ARG_OF_PERICENTER":74.3679,"MEAN_ANOMALY":285.7653,"EPHEMERIS_TYPE":0,"CLASSIFICATION_TYPE":"U","NORAD_CAT_ID":55820,"ELEMENT_SET_NO":999,"REV_AT_EPOCH":13773,"BSTAR":0.00052043835,"MEAN_MOTION_DOT":2.06e-6,"MEAN_MOTION_DDOT":0}]
