ONEWEB-0640             
1 55804U 23029J   26003.30310962 -.00000201  00000+0 -57623-3 0  9993
2 55804  87.9002 322.6089 0002358  67.2039 292.9339 13.14501456137755
ONEWEB-0641             
1 55805U 23029K   26002.89819740  .00000010  00000+0 -68991-5 0  9994
2 55805  87.9218 337.8508 0001615  76.9281 283.2031 13.19726271137111
ONEWEB-0642             
1 55806U 23029L   26002.96927707 -.00000004  00000+0 -42288-4 0  9990
2 55806  87.9203 337.8573 0001293  53.1933 306.9319 13.19725627137117
ONEWEB-0643             
1 55807U 23029M   26003.27297723  .00000026  00000+0  36926-4 0  9998
2 55807  87.9007 322.6010 0001163  60.4581 299.6665 13.14502110137728
ONEWEB-0644             
1 55808U 23029N   26002.88870538 -.00000278  00000+0 -72605-3 0  9990
2 55808  87.9206 337.8827 0001480  71.7727 288.3566 13.19724902137100
ONEWEB-0645             
1 55809U 23029P   26003.28993117 -.00000032  00000+0 -11302-3 0  9990
2 55809  87.9204 337.7955 0001816  66.0014 294.1308 13.19724807137157
ONEWEB-0646             
1 55810U 23029Q   26003.30730508  .00000028  00000+0  38043-4 0  9993
2 55810  87.9212 337.7862 0001524  74.4298 285.7003 13.19726139137145
ONEWEB-0648             
1 55811U 23029R   26003.24126633  .00000134  00000+0  32775-3 0  9998
2 55811  87.9011 322.5694 0001872  47.7341 312.3947 13.14502676137727
ONEWEB-0649             
1 55812U 23029S   26002.95348148  .00000024  00000+0  28577-4 0  9997
2 55812  87.9216 337.8532 0001667  71.3060 288.8253 13.19726183137136
ONEWEB-0650             
1 55813U 23029T   26002.94875304  .00000094  00000+0  20284-3 0  9999
2 55813  87.9209 337.8593 0001485  67.4796 292.6493 13.19725406137109
ONEWEB-0652             
1 55814U 23029U   26003.29835163 -.00000110  00000+0 -33065-3 0  9990
2 55814  87.9003 322.5779 0001793  84.9122 275.2212 13.14502392137702
ONEWEB-0653             
1 55815U 23029V   26003.28249400 -.00000097  00000+0 -29515-3 0  9992
2 55815  87.9007 322.5699 0001909  80.4214 279.7131 13.14502050137733
ONEWEB-0654             
1 55816U 23029W   26003.27773721 -.00000078  00000+0 -24472-3 0  9996
2 55816  87.9010 322.5706 0001959  88.6806 271.4548 13.14501494137753
ONEWEB-0656             
1 55817U 23029X   26003.28156029 -.00000094  00000+0 -26429-3 0  9996
2 55817  87.9226 307.3199 0001969  88.5403 271.5956 13.20771621139386
ONEWEB-0657             
1 55818U 23029Y   26002.94399484  .00000129  00000+0  29058-3 0  9991
2 55818  87.9205 337.8612 0001528 108.8316 251.2983 13.19724125137111
ONEWEB-0658             
1 55819U 23029Z   26002.93926081 -.00000064  00000+0 -19339-3 0  9991
2 55819  87.9222 337.8193 0001422  71.5232 288.6055 13.19726026137128
ONEWEB-0660             
1 55820U 23029AA  26003.25553675  .00000206  00000+0  52044-3 0  9990
2 55820  87.9013 322.5562 0001836  74.3679 285.7653 13.14501633137733
